[{"OBJECT_NAME":"ONEWEB-0215","OBJECT_ID":"2021-045AK","EPOCH":"2026-03-09T14:55:02.250912","MEAN_MOTION":13.1554787,"ECCENTRICITY":0.0002065,"INCLINATION":87.8948,"RA_OF_ASC_NODE":279.0524,"ARG_OF_PERICENTER":109.2253,"MEAN_ANOMALY":250.91,"EPHEMERIS_TYPE":0,"CLASSIFICATION_TYPE":"U","NORAD_CAT_ID":48800,"ELEMENT_SET_NO":999,"REV_AT_EPOCH":23120,"BSTAR":-7.7789e-5,"MEAN_MOTION_DOT":-1.6e-7,"MEAN_MOTION_DDOT":0},{"OBJECT_NAME":"USA 24","OBJECT_ID":"1987-043F","EPOCH":"2026-03-09T22:20:48.799968","MEAN_MOTION":13.84752929,"ECCENTRICITY":0.07971297,"INCLINATION":63.2957,"RA_OF_ASC_NODE":276.5953,"ARG_OF_PERICENTER":102.7417,"MEAN_ANOMALY":266.3854,"EPHEMERIS_TYPE":0,"CLASSIFICATION_TYPE":"U","NORAD_CAT_ID":18010,"ELEMENT_SET_NO":999,"REV_AT_EPOCH":33170,"BSTAR":0.00081528793,"MEAN_MOTION_DOT":0.00014135,"MEAN_MOTION_DDOT":0}]
